{
    "type": "FeatureCollection",
    "features": [
        {
            "type": "Feature",
            "geometry": {
                "type": "Point",
                "coordinates": [
                    -35.7417534,
                    -9.6619534,
                    0
                ]
            },
            "properties": {
                "name": "Gigantinhos - Poço",
                "description": "Unidade poço",
                "styleUrl": "#icon-1899-C2185B",
                "icon-opacity": 1,
                "icon-color": "#c2185b",
                "icon-scale": 1,
                "icon-offset": [
                    32,
                    64
                ],
                "icon-offset-units": [
                    "pixels",
                    "insetPixels"
                ],
                "icon": "https://www.gstatic.com/mapspro/images/stock/503-wht-blank_maps.png"
            }
        },
        {
            "type": "Feature",
            "geometry": {
                "type": "Point",
                "coordinates": [
                    -35.7446893,
                    -9.5643412,
                    0
                ]
            },
            "properties": {
                "name": "Gigantinhos - Antares",
                "styleUrl": "#icon-1899-C2185B-nodesc",
                "icon-opacity": 1,
                "icon-color": "#c2185b",
                "icon-scale": 1,
                "icon-offset": [
                    32,
                    64
                ],
                "icon-offset-units": [
                    "pixels",
                    "insetPixels"
                ],
                "icon": "https://www.gstatic.com/mapspro/images/stock/503-wht-blank_maps.png"
            }
        },
        {
            "type": "Feature",
            "geometry": {
                "type": "Point",
                "coordinates": [
                    -35.7159023,
                    -9.6647368,
                    0
                ]
            },
            "properties": {
                "name": "Gigantinhos - Ponta da Terra",
                "styleUrl": "#icon-1899-C2185B-nodesc",
                "icon-opacity": 1,
                "icon-color": "#c2185b",
                "icon-scale": 1,
                "icon-offset": [
                    32,
                    64
                ],
                "icon-offset-units": [
                    "pixels",
                    "insetPixels"
                ],
                "icon": "https://www.gstatic.com/mapspro/images/stock/503-wht-blank_maps.png"
            }
        },
        {
            "type": "Feature",
            "geometry": {
                "type": "Point",
                "coordinates": [
                    -35.7251498,
                    -9.6301236,
                    0
                ]
            },
            "properties": {
                "name": "Gigantinhos - Feitosa",
                "styleUrl": "#icon-1899-C2185B-nodesc",
                "icon-opacity": 1,
                "icon-color": "#c2185b",
                "icon-scale": 1,
                "icon-offset": [
                    32,
                    64
                ],
                "icon-offset-units": [
                    "pixels",
                    "insetPixels"
                ],
                "icon": "https://www.gstatic.com/mapspro/images/stock/503-wht-blank_maps.png"
            }
        },
        {
            "type": "Feature",
            "geometry": {
                "type": "Point",
                "coordinates": [
                    -35.7808349,
                    -9.559733,
                    0
                ]
            },
            "properties": {
                "name": "Gigantinhos - Cmei Professora Maria Elisabete dos Santos",
                "description": "Unidade Santos Drumont",
                "styleUrl": "#icon-1899-C2185B",
                "icon-opacity": 1,
                "icon-color": "#c2185b",
                "icon-scale": 1,
                "icon-offset": [
                    32,
                    64
                ],
                "icon-offset-units": [
                    "pixels",
                    "insetPixels"
                ],
                "icon": "https://www.gstatic.com/mapspro/images/stock/503-wht-blank_maps.png"
            }
        },
        {
            "type": "Feature",
            "geometry": {
                "type": "Point",
                "coordinates": [
                    -35.7473561,
                    -9.5473005,
                    0
                ]
            },
            "properties": {
                "name": "Gigantinhos - Graciliano",
                "styleUrl": "#icon-1899-C2185B-nodesc",
                "icon-opacity": 1,
                "icon-color": "#c2185b",
                "icon-scale": 1,
                "icon-offset": [
                    32,
                    64
                ],
                "icon-offset-units": [
                    "pixels",
                    "insetPixels"
                ],
                "icon": "https://www.gstatic.com/mapspro/images/stock/503-wht-blank_maps.png"
            }
        },
        {
            "type": "Feature",
            "geometry": {
                "type": "Point",
                "coordinates": [
                    -35.7267473,
                    -9.5694752,
                    0
                ]
            },
            "properties": {
                "name": "Cmei Professora Maria Ivone Santos De Oliveira",
                "description": "Gigantinho",
                "styleUrl": "#icon-1899-C2185B",
                "icon-opacity": 1,
                "icon-color": "#c2185b",
                "icon-scale": 1,
                "icon-offset": [
                    32,
                    64
                ],
                "icon-offset-units": [
                    "pixels",
                    "insetPixels"
                ],
                "icon": "https://www.gstatic.com/mapspro/images/stock/503-wht-blank_maps.png"
            }
        },
        {
            "type": "Feature",
            "geometry": {
                "type": "Point",
                "coordinates": [
                    -35.7510784,
                    -9.6279904,
                    0
                ]
            },
            "properties": {
                "name": "Cmei- Vereador Braga Neto",
                "description": "Gigantinho",
                "styleUrl": "#icon-1899-C2185B",
                "icon-opacity": 1,
                "icon-color": "#c2185b",
                "icon-scale": 1,
                "icon-offset": [
                    32,
                    64
                ],
                "icon-offset-units": [
                    "pixels",
                    "insetPixels"
                ],
                "icon": "https://www.gstatic.com/mapspro/images/stock/503-wht-blank_maps.png"
            }
        },
        {
            "type": "Feature",
            "geometry": {
                "type": "Point",
                "coordinates": [
                    -35.7826886,
                    -9.5280185,
                    0
                ]
            },
            "properties": {
                "name": "CMEI José Orlando Cajé",
                "description": "Gigantinho ",
                "styleUrl": "#icon-1899-C2185B",
                "icon-opacity": 1,
                "icon-color": "#c2185b",
                "icon-scale": 1,
                "icon-offset": [
                    32,
                    64
                ],
                "icon-offset-units": [
                    "pixels",
                    "insetPixels"
                ],
                "icon": "https://www.gstatic.com/mapspro/images/stock/503-wht-blank_maps.png"
            }
        },
        {
            "type": "Feature",
            "geometry": {
                "type": "Point",
                "coordinates": [
                    -35.7296822,
                    -9.6012085,
                    0
                ]
            },
            "properties": {
                "name": "CMEI Estudante João Pedro Bernardino",
                "description": "Gigantinho",
                "styleUrl": "#icon-1899-C2185B",
                "icon-opacity": 1,
                "icon-color": "#c2185b",
                "icon-scale": 1,
                "icon-offset": [
                    32,
                    64
                ],
                "icon-offset-units": [
                    "pixels",
                    "insetPixels"
                ],
                "icon": "https://www.gstatic.com/mapspro/images/stock/503-wht-blank_maps.png"
            }
        },
        {
            "type": "Feature",
            "geometry": {
                "type": "Point",
                "coordinates": [
                    -35.7703481,
                    -9.5792929,
                    0
                ]
            },
            "properties": {
                "name": "CMEI-RP Profª Simone Ferreira Simão",
                "description": "Gigantinho ",
                "styleUrl": "#icon-1899-C2185B",
                "icon-opacity": 1,
                "icon-color": "#c2185b",
                "icon-scale": 1,
                "icon-offset": [
                    32,
                    64
                ],
                "icon-offset-units": [
                    "pixels",
                    "insetPixels"
                ],
                "icon": "https://www.gstatic.com/mapspro/images/stock/503-wht-blank_maps.png"
            }
        },
        {
            "type": "Feature",
            "geometry": {
                "type": "Point",
                "coordinates": [
                    -35.7455375,
                    -9.6174341,
                    0
                ]
            },
            "properties": {
                "name": "CMEI-Professora Zaira Nascimento de Oliveira  ",
                "description": {
                    "@type": "html",
                    "value": "Gigantinhos Chã de Jaqueira <br>Ainda não incluído no maps "
                },
                "styleUrl": "#icon-1899-C2185B",
                "icon-opacity": 1,
                "icon-color": "#c2185b",
                "icon-scale": 1,
                "icon-offset": [
                    32,
                    64
                ],
                "icon-offset-units": [
                    "pixels",
                    "insetPixels"
                ],
                "icon": "https://www.gstatic.com/mapspro/images/stock/503-wht-blank_maps.png"
            }
        }
    ]
}