{
    "type": "FeatureCollection",
    "features": [
        {
            "type": "Feature",
            "geometry": {
                "type": "Point",
                "coordinates": [
                    -35.7416315,
                    -9.664047,
                    0
                ]
            },
            "properties": {
                "name": "Restaurante Popular de Maceió",
                "description": "Presencial e pague e leve",
                "styleUrl": "#icon-1899-F57C00",
                "icon-opacity": 1,
                "icon-color": "#f57c00",
                "icon-scale": 1,
                "icon-offset": [
                    32,
                    64
                ],
                "icon-offset-units": [
                    "pixels",
                    "insetPixels"
                ],
                "icon": "https://www.gstatic.com/mapspro/images/stock/503-wht-blank_maps.png"
            }
        },
        {
            "type": "Feature",
            "geometry": {
                "type": "Point",
                "coordinates": [
                    -35.6087868,
                    -9.5269683,
                    0
                ]
            },
            "properties": {
                "name": "Restaurante Popular Unidade Ipioca",
                "description": "Pague e leve",
                "styleUrl": "#icon-1899-0288D1",
                "icon-opacity": 1,
                "icon-color": "#0288d1",
                "icon-scale": 1,
                "icon-offset": [
                    32,
                    64
                ],
                "icon-offset-units": [
                    "pixels",
                    "insetPixels"
                ],
                "icon": "https://www.gstatic.com/mapspro/images/stock/503-wht-blank_maps.png"
            }
        },
        {
            "type": "Feature",
            "geometry": {
                "type": "Point",
                "coordinates": [
                    -35.7503154,
                    -9.5463594,
                    0
                ]
            },
            "properties": {
                "name": "Restaurante Popular do Graciliano Ramos",
                "description": "Pague e leve",
                "styleUrl": "#icon-1899-0288D1",
                "icon-opacity": 1,
                "icon-color": "#0288d1",
                "icon-scale": 1,
                "icon-offset": [
                    32,
                    64
                ],
                "icon-offset-units": [
                    "pixels",
                    "insetPixels"
                ],
                "icon": "https://www.gstatic.com/mapspro/images/stock/503-wht-blank_maps.png"
            }
        },
        {
            "type": "Feature",
            "geometry": {
                "type": "Point",
                "coordinates": [
                    -35.7273132,
                    -9.54876,
                    0
                ]
            },
            "properties": {
                "name": "Restaurante Popular Unidade Benedito Bentes",
                "description": "Pague e leve",
                "styleUrl": "#icon-1899-0288D1",
                "icon-opacity": 1,
                "icon-color": "#0288d1",
                "icon-scale": 1,
                "icon-offset": [
                    32,
                    64
                ],
                "icon-offset-units": [
                    "pixels",
                    "insetPixels"
                ],
                "icon": "https://www.gstatic.com/mapspro/images/stock/503-wht-blank_maps.png"
            }
        },
        {
            "type": "Feature",
            "geometry": {
                "type": "Point",
                "coordinates": [
                    -35.7167029,
                    -9.6431192,
                    0
                ]
            },
            "properties": {
                "name": "Restaurante Popular Unidade  Jacintinho",
                "description": {
                    "@type": "html",
                    "value": "Sem imagem atualizada no Maps<br>Pague e Leve"
                },
                "styleUrl": "#icon-1899-0288D1",
                "icon-opacity": 1,
                "icon-color": "#0288d1",
                "icon-scale": 1,
                "icon-offset": [
                    32,
                    64
                ],
                "icon-offset-units": [
                    "pixels",
                    "insetPixels"
                ],
                "icon": "https://www.gstatic.com/mapspro/images/stock/503-wht-blank_maps.png"
            }
        },
        {
            "type": "Feature",
            "geometry": {
                "type": "Point",
                "coordinates": [
                    -35.7283583,
                    -9.6506992,
                    0
                ]
            },
            "properties": {
                "name": "Restaurante Popular Unidade Vale do Reginaldo",
                "description": {
                    "@type": "html",
                    "value": "Pague e leve<br>Ainda sem identificação no maps"
                },
                "styleUrl": "#icon-1899-0288D1",
                "icon-opacity": 1,
                "icon-color": "#0288d1",
                "icon-scale": 1,
                "icon-offset": [
                    32,
                    64
                ],
                "icon-offset-units": [
                    "pixels",
                    "insetPixels"
                ],
                "icon": "https://www.gstatic.com/mapspro/images/stock/503-wht-blank_maps.png"
            }
        },
        {
            "type": "Feature",
            "geometry": {
                "type": "Point",
                "coordinates": [
                    -35.7875862,
                    -9.5689515,
                    0
                ]
            },
            "properties": {
                "name": "Restaurante Popular Unidade Clima Bom ",
                "description": {
                    "@type": "html",
                    "value": "Pague e leve<br>Não identificado no maps"
                },
                "styleUrl": "#icon-1899-0288D1",
                "icon-opacity": 1,
                "icon-color": "#0288d1",
                "icon-scale": 1,
                "icon-offset": [
                    32,
                    64
                ],
                "icon-offset-units": [
                    "pixels",
                    "insetPixels"
                ],
                "icon": "https://www.gstatic.com/mapspro/images/stock/503-wht-blank_maps.png"
            }
        },
        {
            "type": "Feature",
            "geometry": {
                "type": "Point",
                "coordinates": [
                    -35.7415753,
                    -9.6528781,
                    0
                ]
            },
            "properties": {
                "name": "Restaurante Popular Unidade Levada",
                "description": {
                    "@type": "html",
                    "value": "Pague e leve<br>Não localizado no maps"
                },
                "styleUrl": "#icon-1899-0288D1",
                "icon-opacity": 1,
                "icon-color": "#0288d1",
                "icon-scale": 1,
                "icon-offset": [
                    32,
                    64
                ],
                "icon-offset-units": [
                    "pixels",
                    "insetPixels"
                ],
                "icon": "https://www.gstatic.com/mapspro/images/stock/503-wht-blank_maps.png"
            },
            "id": 7
        },
        {
            "type": "Feature",
            "geometry": {
                "type": "Point",
                "coordinates": [
                    -35.7619186,
                    -9.6513193,
                    0
                ]
            },
            "properties": {
                "name": "Restaurante Popular Vergel do Lago",
                "description": {
                    "@type": "html",
                    "value": "Pague e Leve<br>Não mapeado pelo maps"
                },
                "styleUrl": "#icon-1899-0288D1",
                "icon-opacity": 1,
                "icon-color": "#0288d1",
                "icon-scale": 1,
                "icon-offset": [
                    32,
                    64
                ],
                "icon-offset-units": [
                    "pixels",
                    "insetPixels"
                ],
                "icon": "https://www.gstatic.com/mapspro/images/stock/503-wht-blank_maps.png"
            }
        },
        {
            "type": "Feature",
            "geometry": {
                "type": "Point",
                "coordinates": [
                    -35.7677311,
                    -9.5862047,
                    0
                ]
            },
            "properties": {
                "name": "Restaurante Popular Unidade Tabuleiro",
                "description": {
                    "@type": "html",
                    "value": "Pague e leve<br>Não mapeado pelo maps"
                },
                "styleUrl": "#icon-1899-0288D1",
                "icon-opacity": 1,
                "icon-color": "#0288d1",
                "icon-scale": 1,
                "icon-offset": [
                    32,
                    64
                ],
                "icon-offset-units": [
                    "pixels",
                    "insetPixels"
                ],
                "icon": "https://www.gstatic.com/mapspro/images/stock/503-wht-blank_maps.png"
            }
        }
    ]
}